{"type": "FeatureCollection", "features": [ {"type": "Feature", "properties": {"norad_id": 35773, "name": "COSMOS 2251 DEB", "group": "cosmos-2251-debris", "lat": -24.67338043101504, "lon": -36.185985737716244, "alt_km": 720.8491986621639, "timestamp": "2025-12-17T15:50:10.178531+00:00", "meta": {"OBJECT_NAME": "COSMOS 2251 DEB", "OBJECT_ID": "1993-036ART", "EPOCH": "2025-12-16T08:45:12.110400", "MEAN_MOTION": 14.62089666, "ECCENTRICITY": 0.00453985, "INCLINATION": 74.0081, "RA_OF_ASC_NODE": 333.8672, "ARG_OF_PERICENTER": 132.8742, "MEAN_ANOMALY": 227.6252, "EPHEMERIS_TYPE": 0, "CLASSIFICATION_TYPE": "U", "NORAD_CAT_ID": 35773, "ELEMENT_SET_NO": 999, "REV_AT_EPOCH": 86892, "BSTAR": 0.00041831991, "MEAN_MOTION_DOT": 2.102e-05, "MEAN_MOTION_DDOT": 0}, "tle": {"line1": "1 35773U 93036ART 25350.36472350  .00002102  00000+0  41832-3 0  9996", "line2": "2 35773  74.0081 333.8672 0045398 132.8742 227.6252 14.62089666868922"}}, "geometry": {"type": "Point", "coordinates": [-36.185985737716244, -24.67338043101504]}}, {"type": "Feature", "properties": {"norad_id": 35777, "name": "COSMOS 2251 DEB", "group": "cosmos-2251-debris", "lat": 22.659810324970405, "lon": 127.89750132363953, "alt_km": 889.2808437000849, "timestamp": "2025-12-17T15:50:10.178542+00:00", "meta": {"OBJECT_NAME": "COSMOS 2251 DEB", "OBJECT_ID": "1993-036ARX", "EPOCH": "2025-12-14T09:03:39.038688", "MEAN_MOTION": 13.41304599, "ECCENTRICITY": 0.04522665, "INCLINATION": 73.7708, "RA_OF_ASC_NODE": 320.1235, "ARG_OF_PERICENTER": 214.7192, "MEAN_ANOMALY": 302.0214, "EPHEMERIS_TYPE": 0, "CLASSIFICATION_TYPE": "U", "NORAD_CAT_ID": 35777, "ELEMENT_SET_NO": 999, "REV_AT_EPOCH": 79706, "BSTAR": 0.00047090118, "MEAN_MOTION_DOT": 4.55e-06, "MEAN_MOTION_DDOT": 0}, "tle": {"line1": "1 35777U 93036ARX 25348.37753517  .00000455  00000+0  47090-3 0  9996", "line2": "2 35777  73.7708 320.1235 0452266 214.7192 302.0214 13.41304599797060"}}, "geometry": {"type": "Point", "coordinates": [127.89750132363953, 22.659810324970405]}}, {"type": "Feature", "properties": {"norad_id": 35784, "name": "COSMOS 2251 DEB", "group": "cosmos-2251-debris", "lat": 40.9235927265158, "lon": -113.8948611421038, "alt_km": 713.1397524014556, "timestamp": "2025-12-17T15:50:10.178552+00:00", "meta": {"OBJECT_NAME": "COSMOS 2251 DEB", "OBJECT_ID": "1993-036ASE", "EPOCH": "2025-12-13T00:15:55.997856", "MEAN_MOTION": 14.5004387, "ECCENTRICITY": 0.00418068, "INCLINATION": 74.0388, "RA_OF_ASC_NODE": 89.1969, "ARG_OF_PERICENTER": 220.0486, "MEAN_ANOMALY": 139.759, "EPHEMERIS_TYPE": 0, "CLASSIFICATION_TYPE": "U", "NORAD_CAT_ID": 35784, "ELEMENT_SET_NO": 999, "REV_AT_EPOCH": 65710, "BSTAR": 0.00055772353, "MEAN_MOTION_DOT": 2.158e-05, "MEAN_MOTION_DDOT": 0}, "tle": {"line1": "1 35784U 93036ASE 25347.01106479  .00002158  00000+0  55772-3 0  9991", "line2": "2 35784  74.0388  89.1969 0041806 220.0486 139.7590 14.50043870657107"}}, "geometry": {"type": "Point", "coordinates": [-113.8948611421038, 40.9235927265158]}}, {"type": "Feature", "properties": {"norad_id": 35786, "name": "COSMOS 2251 DEB", "group": "cosmos-2251-debris", "lat": -16.76892013571174, "lon": 29.319837440910028, "alt_km": 701.311451188818, "timestamp": "2025-12-17T15:50:10.178563+00:00", "meta": {"OBJECT_NAME": "COSMOS 2251 DEB", "OBJECT_ID": "1993-036ASG", "EPOCH": "2025-12-16T12:04:43.977792", "MEAN_MOTION": 14.6626671, "ECCENTRICITY": 0.00337237, "INCLINATION": 74.0152, "RA_OF_ASC_NODE": 36.5059, "ARG_OF_PERICENTER": 165.4395, "MEAN_ANOMALY": 194.7754, "EPHEMERIS_TYPE": 0, "CLASSIFICATION_TYPE": "U", "NORAD_CAT_ID": 35786, "ELEMENT_SET_NO": 999, "REV_AT_EPOCH": 73463, "BSTAR": 0.00064102144, "MEAN_MOTION_DOT": 3.533e-05, "MEAN_MOTION_DDOT": 0}, "tle": {"line1": "1 35786U 93036ASG 25350.50328678  .00003533  00000+0  64102-3 0  9993", "line2": "2 35786  74.0152  36.5059 0033723 165.4395 194.7754 14.66266710734638"}}, "geometry": {"type": "Point", "coordinates": [29.319837440910028, -16.76892013571174]}}, {"type": "Feature", "properties": {"norad_id": 35789, "name": "COSMOS 2251 DEB", "group": "cosmos-2251-debris", "lat": -37.994421635589745, "lon": 108.25722007701822, "alt_km": 808.3078919013687, "timestamp": "2025-12-17T15:50:10.178573+00:00", "meta": {"OBJECT_NAME": "COSMOS 2251 DEB", "OBJECT_ID": "1993-036ASK", "EPOCH": "2025-12-17T01:26:23.250912", "MEAN_MOTION": 14.35989528, "ECCENTRICITY": 0.00475408, "INCLINATION": 74.0381, "RA_OF_ASC_NODE": 276.4392, "ARG_OF_PERICENTER": 14.7858, "MEAN_ANOMALY": 345.4672, "EPHEMERIS_TYPE": 0, "CLASSIFICATION_TYPE": "U", "NORAD_CAT_ID": 35789, "ELEMENT_SET_NO": 999, "REV_AT_EPOCH": 61289, "BSTAR": 0.00011853028, "MEAN_MOTION_DOT": 3.23e-06, "MEAN_MOTION_DDOT": 0}, "tle": {"line1": "1 35789U 93036ASK 25351.05999133  .00000323  00000+0  11853-3 0  9996", "line2": "2 35789  74.0381 276.4392 0047540  14.7858 345.4672 14.35989528612894"}}, "geometry": {"type": "Point", "coordinates": [108.25722007701822, -37.994421635589745]}}, {"type": "Feature", "properties": {"norad_id": 35793, "name": "COSMOS 2251 DEB", "group": "cosmos-2251-debris", "lat": -48.19673922639593, "lon": 31.85144609992438, "alt_km": 640.9876551132802, "timestamp": "2025-12-17T15:50:10.178583+00:00", "meta": {"OBJECT_NAME": "COSMOS 2251 DEB", "OBJECT_ID": "1993-036ASP", "EPOCH": "2025-12-16T22:59:16.262304", "MEAN_MOTION": 14.7878305, "ECCENTRICITY": 0.00021826, "INCLINATION": 74.0414, "RA_OF_ASC_NODE": 51.8941, "ARG_OF_PERICENTER": 103.608, "MEAN_ANOMALY": 69.9436, "EPHEMERIS_TYPE": 0, "CLASSIFICATION_TYPE": "U", "NORAD_CAT_ID": 35793, "ELEMENT_SET_NO": 999, "REV_AT_EPOCH": 65859, "BSTAR": 0.0012867323, "MEAN_MOTION_DOT": 9.439e-05, "MEAN_MOTION_DDOT": 0}, "tle": {"line1": "1 35793U 93036ASP 25350.95782711  .00009439  00000+0  12867-2 0  9993", "line2": "2 35793  74.0414  51.8941 0002182 103.6080  69.9436 14.78783050658591"}}, "geometry": {"type": "Point", "coordinates": [31.85144609992438, -48.19673922639593]}}, {"type": "Feature", "properties": {"norad_id": 35824, "name": "COSMOS 2251 DEB", "group": "cosmos-2251-debris", "lat": 6.220304837893096, "lon": -141.47551733994217, "alt_km": 811.4493560575811, "timestamp": "2025-12-17T15:50:10.178593+00:00", "meta": {"OBJECT_NAME": "COSMOS 2251 DEB", "OBJECT_ID": "1993-036ASW", "EPOCH": "2025-12-16T11:21:25.680960", "MEAN_MOTION": 13.8843323, "ECCENTRICITY": 0.0248339, "INCLINATION": 73.8466, "RA_OF_ASC_NODE": 42.3735, "ARG_OF_PERICENTER": 127.8314, "MEAN_ANOMALY": 234.5575, "EPHEMERIS_TYPE": 0, "CLASSIFICATION_TYPE": "U", "NORAD_CAT_ID": 35824, "ELEMENT_SET_NO": 999, "REV_AT_EPOCH": 84279, "BSTAR": 0.00080259174, "MEAN_MOTION_DOT": 1.209e-05, "MEAN_MOTION_DDOT": 0}, "tle": {"line1": "1 35824U 93036ASW 25350.47321390  .00001209  00000+0  80259-3 0  9995", "line2": "2 35824  73.8466  42.3735 0248339 127.8314 234.5575 13.88433230842793"}}, "geometry": {"type": "Point", "coordinates": [-141.47551733994217, 6.220304837893096]}}, {"type": "Feature", "properties": {"norad_id": 35825, "name": "COSMOS 2251 DEB", "group": "cosmos-2251-debris", "lat": -54.192584548814104, "lon": -22.19507754482786, "alt_km": 745.1316436103689, "timestamp": "2025-12-17T15:50:10.178604+00:00", "meta": {"OBJECT_NAME": "COSMOS 2251 DEB", "OBJECT_ID": "1993-036ASX", "EPOCH": "2025-12-14T02:36:29.406816", "MEAN_MOTION": 13.70963524, "ECCENTRICITY": 0.03526119, "INCLINATION": 74.113, "RA_OF_ASC_NODE": 140.3902, "ARG_OF_PERICENTER": 235.9093, "MEAN_ANOMALY": 120.8102, "EPHEMERIS_TYPE": 0, "CLASSIFICATION_TYPE": "U", "NORAD_CAT_ID": 35825, "ELEMENT_SET_NO": 999, "REV_AT_EPOCH": 82527, "BSTAR": 0.0023333684, "MEAN_MOTION_DOT": 3.214e-05, "MEAN_MOTION_DDOT": 0}, "tle": {"line1": "1 35825U 93036ASX 25348.10867369  .00003214  00000+0  23334-2 0  9992", "line2": "2 35825  74.1130 140.3902 0352611 235.9093 120.8102 13.70963524825277"}}, "geometry": {"type": "Point", "coordinates": [-22.19507754482786, -54.192584548814104]}}, {"type": "Feature", "properties": {"norad_id": 35829, "name": "COSMOS 2251 DEB", "group": "cosmos-2251-debris", "lat": -5.382962382992928, "lon": -89.28813482870967, "alt_km": 641.0374833145097, "timestamp": "2025-12-17T15:50:10.178614+00:00", "meta": {"OBJECT_NAME": "COSMOS 2251 DEB", "OBJECT_ID": "1993-036ATB", "EPOCH": "2025-12-17T00:21:46.598688", "MEAN_MOTION": 14.76400839, "ECCENTRICITY": 0.0005573, "INCLINATION": 74.0249, "RA_OF_ASC_NODE": 90.4281, "ARG_OF_PERICENTER": 146.0686, "MEAN_ANOMALY": 214.0846, "EPHEMERIS_TYPE": 0, "CLASSIFICATION_TYPE": "U", "NORAD_CAT_ID": 35829, "ELEMENT_SET_NO": 999, "REV_AT_EPOCH": 87838, "BSTAR": 0.001494418, "MEAN_MOTION_DOT": 0.00010373, "MEAN_MOTION_DDOT": 0}, "tle": {"line1": "1 35829U 93036ATB 25351.01512267  .00010373  00000+0  14944-2 0  9995", "line2": "2 35829  74.0249  90.4281 0005573 146.0686 214.0846 14.76400839878381"}}, "geometry": {"type": "Point", "coordinates": [-89.28813482870967, -5.382962382992928]}}, {"type": "Feature", "properties": {"norad_id": 35830, "name": "COSMOS 2251 DEB", "group": "cosmos-2251-debris", "lat": -69.44723692796892, "lon": -153.07670786966568, "alt_km": 771.6245129670097, "timestamp": "2025-12-17T15:50:10.178625+00:00", "meta": {"OBJECT_NAME": "COSMOS 2251 DEB", "OBJECT_ID": "1993-036ATC", "EPOCH": "2025-12-17T01:01:27.071616", "MEAN_MOTION": 14.24015017, "ECCENTRICITY": 0.01218819, "INCLINATION": 73.8614, "RA_OF_ASC_NODE": 258.6041, "ARG_OF_PERICENTER": 226.0627, "MEAN_ANOMALY": 133.0413, "EPHEMERIS_TYPE": 0, "CLASSIFICATION_TYPE": "U", "NORAD_CAT_ID": 35830, "ELEMENT_SET_NO": 999, "REV_AT_EPOCH": 61325, "BSTAR": 0.00082142349, "MEAN_MOTION_DOT": 2.01e-05, "MEAN_MOTION_DDOT": 0}, "tle": {"line1": "1 35830U 93036ATC 25351.04267444  .00002010  00000+0  82142-3 0  9999", "line2": "2 35830  73.8614 258.6041 0121881 226.0627 133.0413 14.24015017613259"}}, "geometry": {"type": "Point", "coordinates": [-153.07670786966568, -69.44723692796892]}}]}